ONEWEB-0319             
1 49105U 21075AG  24158.49210461  .00000053  00000+0  10312-3 0  9998
2 49105  87.9160 153.3263 0001406  88.1437 271.9856 13.17650720136063
ONEWEB-0323             
1 49106U 21075AH  24158.47333740  .00000477  00000+0  12888-2 0  9992
2 49106  87.8928 138.1408 0001832  84.9548 275.1789 13.12568581137393
ONEWEB-0329             
1 49107U 21075AJ  24158.50003416  .00000048  00000+0  91233-4 0  9998
2 49107  87.9161 153.3286 0001837  84.6373 275.4968 13.17647993136048
ONEWEB-0330             
1 49108U 21075AK  24158.50161699  .00000046  00000+0  85625-4 0  9993
2 49108  87.9162 153.3287 0001909  80.6426 279.4921 13.17647548136089
ONEWEB-0292             
1 49186U 21083A   24158.56572381 -.00000091  00000+0 -28348-3 0  9998
2 49186  87.8926 107.6759 0001962  83.1290 277.0062 13.13468873133708
ONEWEB-0303             
1 49187U 21083B   24158.59852293 -.00000081  00000+0 -23901-3 0  9994
2 49187  87.9134 122.8833 0001867  87.3639 272.7707 13.18684259132373
ONEWEB-0306             
1 49188U 21083C   24158.43731044  .00000032  00000+0  47637-4 0  9995
2 49188  87.9134 122.9027 0002239  82.1527 277.9859 13.18686896132399
ONEWEB-0307             
1 49189U 21083D   24158.56017077  .00000022  00000+0  24766-4 0  9990
2 49189  87.8926 107.6769 0002278  72.5409 287.5969 13.13469046133702
